STARLINK-1804
1 26704C 20073AL  21325.15832559  .00006474  00000-0  43369-3 0  3256
2 26704  53.0560  67.5095 0000751 251.9323 155.9325 15.06401989    16
